start=new Date('2022-08-14T00:00:00.000Z').valueOf();
sats=[{"NORAD_CAT_ID":"47745","GP_ID":"210162577","MEAN_MOTION_DDOT":"0.0000000000000","EPHEMERIS_TYPE":"0","DECAY_DATE":null,"FILE":"3535825","ECCENTRICITY":"0.00013430","MEAN_ELEMENT_THEORY":"SGP4","ELEMENT_SET_NO":"999","LAUNCH_DATE":"2021-03-04","SEMIMAJOR_AXIS":"6925.341","REF_FRAME":"TEME","TLE_LINE2":"2 47745  53.0545 305.4618 0001343  91.2861 268.8282 15.06402345 81180","APOAPSIS":"548.136","ARG_OF_PERICENTER":"91.2861","MEAN_ANOMALY":"268.8282","RA_OF_ASC_NODE":"305.4618","OBJECT_NAME":"STARLINK-2159","CENTER_NAME":"EARTH","INCLINATION":"53.0545","OBJECT_TYPE":"PAYLOAD","REV_AT_EPOCH":"8118","EPOCH":"2022-08-13T16:43:03.112320","BSTAR":"0.00004153000000","TLE_LINE1":"1 47745U 21017Z   22225.69656380  .00000337  00000-0  41530-4 0  9994","MEAN_MOTION":"15.06402345","PERIOD":"95.592","RCS_SIZE":"LARGE","COUNTRY_CODE":"US","SITE":"AFETR","TIME_SYSTEM":"UTC","OBJECT_ID":"2021-017Z","MEAN_MOTION_DOT":"0.00000337","CLASSIFICATION_TYPE":"U","PERIAPSIS":"546.276"},{"NORAD_CAT_ID":"47746","DECAY_DATE":null,"FILE":"3535825","ECCENTRICITY":"0.00016240","GP_ID":"210163829","EPHEMERIS_TYPE":"0","MEAN_MOTION_DDOT":"0.0000000000000","ELEMENT_SET_NO":"999","LAUNCH_DATE":"2021-03-04","MEAN_ELEMENT_THEORY":"SGP4","RA_OF_ASC_NODE":"305.5159","CENTER_NAME":"EARTH","OBJECT_NAME":"STARLINK-2160","SEMIMAJOR_AXIS":"6925.310","REF_FRAME":"TEME","TLE_LINE2":"2 47746  53.0538 305.5159 0001624  84.5052 275.6122 15.06412680 81174","APOAPSIS":"548.299","MEAN_ANOMALY":"275.6122","ARG_OF_PERICENTER":"84.5052","INCLINATION":"53.0538","OBJECT_TYPE":"PAYLOAD","EPOCH":"2022-08-13T16:32:27.195360","BSTAR":"-0.00007402600000","REV_AT_EPOCH":"8117","RCS_SIZE":"LARGE","COUNTRY_CODE":"US","SITE":"AFETR","TLE_LINE1":"1 47746U 21017AA  22225.68920365 -.00001384  00000-0 -74026-4 0  9992","MEAN_MOTION":"15.06412680","PERIOD":"95.591","PERIAPSIS":"546.050","TIME_SYSTEM":"UTC","OBJECT_ID":"2021-017AA","MEAN_MOTION_DOT":"-0.00001384","CLASSIFICATION_TYPE":"U"},{"SEMIMAJOR_AXIS":"6925.346","TLE_LINE2":"2 47747  53.0530 296.4056 0001284  79.5380 280.5753 15.06400884 81326","REF_FRAME":"TEME","APOAPSIS":"548.100","ARG_OF_PERICENTER":"79.5380","MEAN_ANOMALY":"280.5753","RA_OF_ASC_NODE":"296.4056","OBJECT_NAME":"STARLINK-2161","CENTER_NAME":"EARTH","MEAN_ELEMENT_THEORY":"SGP4","ELEMENT_SET_NO":"999","LAUNCH_DATE":"2021-03-04","GP_ID":"210138371","EPHEMERIS_TYPE":"0","MEAN_MOTION_DDOT":"0.0000000000000","DECAY_DATE":null,"FILE":"3535824","ECCENTRICITY":"0.00012840","NORAD_CAT_ID":"47747","OBJECT_ID":"2021-017AB","TIME_SYSTEM":"UTC","MEAN_MOTION_DOT":"-0.00000361","CLASSIFICATION_TYPE":"U","PERIAPSIS":"546.322","TLE_LINE1":"1 47747U 21017AB  22225.48738906 -.00000361  00000-0 -53353-5 0  9994","MEAN_MOTION":"15.06400884","PERIOD":"95.592","RCS_SIZE":"LARGE","COUNTRY_CODE":"US","SITE":"AFETR","REV_AT_EPOCH":"8132","EPOCH":"2022-08-13T11:41:50.414784","BSTAR":"-0.00000533530000","INCLINATION":"53.0530","OBJECT_TYPE":"PAYLOAD"},{"BSTAR":"-0.00000156280000","EPOCH":"2022-08-13T19:28:56.044128","REV_AT_EPOCH":"8134","OBJECT_TYPE":"PAYLOAD","INCLINATION":"53.0532","PERIAPSIS":"545.323","CLASSIFICATION_TYPE":"U","MEAN_MOTION_DOT":"-0.00000305","OBJECT_ID":"2021-017AC","TIME_SYSTEM":"UTC","SITE":"AFETR","COUNTRY_CODE":"US","RCS_SIZE":"LARGE","PERIOD":"95.593","MEAN_MOTION":"15.06393083","TLE_LINE1":"1 47748U 21017AC  22225.81175977 -.00000305  00000-0 -15628-5 0  9996","ECCENTRICITY":"0.00027610","FILE":"3535825","DECAY_DATE":null,"EPHEMERIS_TYPE":"0","MEAN_MOTION_DDOT":"0.0000000000000","GP_ID":"210162327","NORAD_CAT_ID":"47748","CENTER_NAME":"EARTH","OBJECT_NAME":"STARLINK-2162","RA_OF_ASC_NODE":"294.9535","APOAPSIS":"549.147","MEAN_ANOMALY":"309.7096","ARG_OF_PERICENTER":"50.4136","TLE_LINE2":"2 47748  53.0532 294.9535 0002761  50.4136 309.7096 15.06393083 81340","REF_FRAME":"TEME","SEMIMAJOR_AXIS":"6925.370","LAUNCH_DATE":"2021-03-04","ELEMENT_SET_NO":"999","MEAN_ELEMENT_THEORY":"SGP4"},{"CLASSIFICATION_TYPE":"U","MEAN_MOTION_DOT":"0.00001778","OBJECT_ID":"2021-017AD","TIME_SYSTEM":"UTC","PERIAPSIS":"546.380","PERIOD":"95.592","MEAN_MOTION":"15.06394848","TLE_LINE1":"1 47749U 21017AD  22225.49477330  .00001778  00000-0  13827-3 0  9999","SITE":"AFETR","COUNTRY_CODE":"US","RCS_SIZE":"MEDIUM","REV_AT_EPOCH":"8129","BSTAR":"0.00013827000000","EPOCH":"2022-08-13T11:52:28.413120","OBJECT_TYPE":"PAYLOAD","INCLINATION":"53.0547","ARG_OF_PERICENTER":"87.2533","APOAPSIS":"548.079","MEAN_ANOMALY":"272.8596","TLE_LINE2":"2 47749  53.0547 296.3809 0001227  87.2533 272.8596 15.06394848 81291","REF_FRAME":"TEME","SEMIMAJOR_AXIS":"6925.364","OBJECT_NAME":"STARLINK-2163","CENTER_NAME":"EARTH","RA_OF_ASC_NODE":"296.3809","MEAN_ELEMENT_THEORY":"SGP4","LAUNCH_DATE":"2021-03-04","ELEMENT_SET_NO":"999","MEAN_MOTION_DDOT":"0.0000000000000","EPHEMERIS_TYPE":"0","GP_ID":"210137371","ECCENTRICITY":"0.00012270","FILE":"3535824","DECAY_DATE":null,"NORAD_CAT_ID":"47749"},{"OBJECT_TYPE":"PAYLOAD","INCLINATION":"53.0526","BSTAR":"0.00028417000000","EPOCH":"2022-08-13T16:07:14.845440","REV_AT_EPOCH":"8132","SITE":"AFETR","COUNTRY_CODE":"US","RCS_SIZE":"LARGE","PERIOD":"95.592","MEAN_MOTION":"15.06396116","TLE_LINE1":"1 47750U 21017AE  22225.67169960  .00003953  00000-0  28417-3 0  9996","PERIAPSIS":"546.282","CLASSIFICATION_TYPE":"U","MEAN_MOTION_DOT":"0.00003953","TIME_SYSTEM":"UTC","OBJECT_ID":"2021-017AE","NORAD_CAT_ID":"47750","ECCENTRICITY":"0.00013620","FILE":"3535825","DECAY_DATE":null,"MEAN_MOTION_DDOT":"0.0000000000000","EPHEMERIS_TYPE":"0","GP_ID":"210163329","LAUNCH_DATE":"2021-03-04","ELEMENT_SET_NO":"999","MEAN_ELEMENT_THEORY":"SGP4","CENTER_NAME":"EARTH","OBJECT_NAME":"STARLINK-2164","RA_OF_ASC_NODE":"295.5842","ARG_OF_PERICENTER":"63.3727","APOAPSIS":"548.169","MEAN_ANOMALY":"296.7401","TLE_LINE2":"2 47750  53.0526 295.5842 0001362  63.3727 296.7401 15.06396116 81322","REF_FRAME":"TEME","SEMIMAJOR_AXIS":"6925.360"},{"COUNTRY_CODE":"US","RCS_SIZE":"LARGE","SITE":"AFETR","MEAN_MOTION":"15.06406660","TLE_LINE1":"1 47751U 21017AF  22225.43671236  .00002867  00000-0  21128-3 0  9990","PERIOD":"95.592","PERIAPSIS":"546.160","TIME_SYSTEM":"UTC","OBJECT_ID":"2021-017AF","CLASSIFICATION_TYPE":"U","MEAN_MOTION_DOT":"0.00002867","OBJECT_TYPE":"PAYLOAD","INCLINATION":"53.0549","EPOCH":"2022-08-13T10:28:51.947904","BSTAR":"0.00021128000000","REV_AT_EPOCH":"8143","ELEMENT_SET_NO":"999","LAUNCH_DATE":"2021-03-04","MEAN_ELEMENT_THEORY":"SGP4","RA_OF_ASC_NODE":"286.6363","CENTER_NAME":"EARTH","OBJECT_NAME":"STARLINK-2168","TLE_LINE2":"2 47751  53.0549 286.6363 0001492  64.8827 295.2316 15.06406660 81435","REF_FRAME":"TEME","SEMIMAJOR_AXIS":"6925.328","MEAN_ANOMALY":"295.2316","APOAPSIS":"548.226","ARG_OF_PERICENTER":"64.8827","NORAD_CAT_ID":"47751","DECAY_DATE":null,"ECCENTRICITY":"0.00014920","FILE":"3535824","GP_ID":"210137871","EPHEMERIS_TYPE":"0","MEAN_MOTION_DDOT":"0.0000000000000"},{"OBJECT_ID":"2021-017AG","TIME_SYSTEM":"UTC","MEAN_MOTION_DOT":"-0.00003162","CLASSIFICATION_TYPE":"U","PERIAPSIS":"546.461","TLE_LINE1":"1 47752U 21017AG  22225.47036151 -.00003162  00000-0 -19358-3 0  9999","MEAN_MOTION":"15.06379709","PERIOD":"95.593","RCS_SIZE":"MEDIUM","COUNTRY_CODE":"US","SITE":"AFETR","REV_AT_EPOCH":"8127","EPOCH":"2022-08-13T11:17:19.234464","BSTAR":"-0.00019358000000","INCLINATION":"53.0541","OBJECT_TYPE":"PAYLOAD","SEMIMAJOR_AXIS":"6925.411","TLE_LINE2":"2 47752  53.0541 301.4900 0001176  85.3663 274.7460 15.06379709 81273","REF_FRAME":"TEME","APOAPSIS":"548.090","ARG_OF_PERICENTER":"85.3663","MEAN_ANOMALY":"274.7460","RA_OF_ASC_NODE":"301.4900","CENTER_NAME":"EARTH","OBJECT_NAME":"STARLINK-2169","MEAN_ELEMENT_THEORY":"SGP4","ELEMENT_SET_NO":"999","LAUNCH_DATE":"2021-03-04","GP_ID":"210138121","MEAN_MOTION_DDOT":"0.0000000000000","EPHEMERIS_TYPE":"0","DECAY_DATE":null,"FILE":"3535824","ECCENTRICITY":"0.00011760","NORAD_CAT_ID":"47752"},{"EPOCH":"2022-08-13T15:28:45.458112","BSTAR":"0.00002099800000","REV_AT_EPOCH":"8122","INCLINATION":"53.0545","OBJECT_TYPE":"PAYLOAD","PERIAPSIS":"546.313","TIME_SYSTEM":"UTC","OBJECT_ID":"2021-017AH","MEAN_MOTION_DOT":"0.00000031","CLASSIFICATION_TYPE":"U","RCS_SIZE":"LARGE","COUNTRY_CODE":"US","SITE":"AFETR","TLE_LINE1":"1 47753U 21017AH  22225.64497058  .00000031  00000-0  20998-4 0  9999","MEAN_MOTION":"15.06400607","PERIOD":"95.592","DECAY_DATE":null,"FILE":"3535825","ECCENTRICITY":"0.00012980","GP_ID":"210162578","MEAN_MOTION_DDOT":"0.0000000000000","EPHEMERIS_TYPE":"0","NORAD_CAT_ID":"47753","RA_OF_ASC_NODE":"305.7132","CENTER_NAME":"EARTH","OBJECT_NAME":"STARLINK-2170","SEMIMAJOR_AXIS":"6925.347","TLE_LINE2":"2 47753  53.0545 305.7132 0001298  72.5683 287.5448 15.06400607 81222","REF_FRAME":"TEME","ARG_OF_PERICENTER":"72.5683","APOAPSIS":"548.111","MEAN_ANOMALY":"287.5448","ELEMENT_SET_NO":"999","LAUNCH_DATE":"2021-03-04","MEAN_ELEMENT_THEORY":"SGP4"},{"NORAD_CAT_ID":"47754","EPHEMERIS_TYPE":"0","MEAN_MOTION_DDOT":"0.0000000000000","GP_ID":"210163830","ECCENTRICITY":"0.00012220","FILE":"3535825","DECAY_DATE":null,"MEAN_ELEMENT_THEORY":"SGP4","LAUNCH_DATE":"2021-03-04","ELEMENT_SET_NO":"999","APOAPSIS":"548.053","MEAN_ANOMALY":"279.8220","ARG_OF_PERICENTER":"80.2907","REF_FRAME":"TEME","TLE_LINE2":"2 47754  53.0528 305.8517 0001222  80.2907 279.8220 15.06402081 81189","SEMIMAJOR_AXIS":"6925.342","CENTER_NAME":"EARTH","OBJECT_NAME":"STARLINK-2171","RA_OF_ASC_NODE":"305.8517","OBJECT_TYPE":"PAYLOAD","INCLINATION":"53.0528","REV_AT_EPOCH":"8118","BSTAR":"-0.00001010200000","EPOCH":"2022-08-13T14:46:16.633920","PERIOD":"95.592","MEAN_MOTION":"15.06402081","TLE_LINE1":"1 47754U 21017AJ  22225.61547030 -.00000432  00000-0 -10102-4 0  9996","SITE":"AFETR","COUNTRY_CODE":"US","RCS_SIZE":"LARGE","CLASSIFICATION_TYPE":"U","MEAN_MOTION_DOT":"-0.00000432","OBJECT_ID":"2021-017AJ","TIME_SYSTEM":"UTC","PERIAPSIS":"546.361"}];
